CCSDS_OMM_VERS = 2.0
CREATION_DATE  = 
ORIGINATOR     = 

OBJECT_NAME    = COSMOS 1743
OBJECT_ID      = 1986-034A
CENTER_NAME    = EARTH
REF_FRAME      = TEME
TIME_SYSTEM    = UTC
MEAN_ELEMENT_THEORY = SGP/SGP4

EPOCH          = 2025-11-13T02:35:54.961728
MEAN_MOTION    = 15.50178341
ECCENTRICITY   = .0007285
INCLINATION    = 82.5377
RA_OF_ASC_NODE = 195.3182
ARG_OF_PERICENTER = 16.1529
MEAN_ANOMALY   = 343.9953

EPHEMERIS_TYPE = 0
CLASSIFICATION_TYPE = U
NORAD_CAT_ID   = 16719
ELEMENT_SET_NO = 999
REV_AT_EPOCH   = 16214
BSTAR          = .87815E-3
MEAN_MOTION_DOT = .49816E-3
MEAN_MOTION_DDOT = 0

CCSDS_OMM_VERS = 2.0
CREATION_DATE  = 
ORIGINATOR     = 

OBJECT_NAME    = SL-14 R/B
OBJECT_ID      = 1986-046B
CENTER_NAME    = EARTH
REF_FRAME      = TEME
TIME_SYSTEM    = UTC
MEAN_ELEMENT_THEORY = SGP/SGP4

EPOCH          = 2025-11-13T03:26:06.072576
MEAN_MOTION    = 14.85442615
ECCENTRICITY   = .0021687
INCLINATION    = 82.4833
RA_OF_ASC_NODE = 190.2627
ARG_OF_PERICENTER = 252.3948
MEAN_ANOMALY   = 107.4900

EPHEMERIS_TYPE = 0
CLASSIFICATION_TYPE = U
NORAD_CAT_ID   = 16792
ELEMENT_SET_NO = 999
REV_AT_EPOCH   = 10910
BSTAR          = .12211E-3
MEAN_MOTION_DOT = .108E-4
MEAN_MOTION_DDOT = 0

CCSDS_OMM_VERS = 2.0
CREATION_DATE  = 
ORIGINATOR     = 

OBJECT_NAME    = SL-14 R/B
OBJECT_ID      = 1986-055B
CENTER_NAME    = EARTH
REF_FRAME      = TEME
TIME_SYSTEM    = UTC
MEAN_ELEMENT_THEORY = SGP/SGP4

EPOCH          = 2025-11-13T03:42:05.787360
MEAN_MOTION    = 14.85484617
ECCENTRICITY   = .001911
INCLINATION    = 82.5217
RA_OF_ASC_NODE = 236.1682
ARG_OF_PERICENTER = 2.7342
MEAN_ANOMALY   = 122.1737

EPHEMERIS_TYPE = 0
CLASSIFICATION_TYPE = U
NORAD_CAT_ID   = 16882
ELEMENT_SET_NO = 999
REV_AT_EPOCH   = 10206
BSTAR          = .15168E-3
MEAN_MOTION_DOT = .1336E-4
MEAN_MOTION_DDOT = 0

CCSDS_OMM_VERS = 2.0
CREATION_DATE  = 
ORIGINATOR     = 

OBJECT_NAME    = AJISAI (EGS)
OBJECT_ID      = 1986-061A
CENTER_NAME    = EARTH
REF_FRAME      = TEME
TIME_SYSTEM    = UTC
MEAN_ELEMENT_THEORY = SGP/SGP4

EPOCH          = 2025-11-13T03:14:00.633984
MEAN_MOTION    = 12.44514141
ECCENTRICITY   = .0011192
INCLINATION    = 50.0083
RA_OF_ASC_NODE = 91.7486
ARG_OF_PERICENTER = 351.3486
MEAN_ANOMALY   = 189.9905

EPHEMERIS_TYPE = 0
CLASSIFICATION_TYPE = U
NORAD_CAT_ID   = 16908
ELEMENT_SET_NO = 999
REV_AT_EPOCH   = 45348
BSTAR          = .35084E-4
MEAN_MOTION_DOT = -.92E-6
MEAN_MOTION_DDOT = 0

CCSDS_OMM_VERS = 2.0
CREATION_DATE  = 
ORIGINATOR     = 

OBJECT_NAME    = COSMOS 1812
OBJECT_ID      = 1987-003A
CENTER_NAME    = EARTH
REF_FRAME      = TEME
TIME_SYSTEM    = UTC
MEAN_ELEMENT_THEORY = SGP/SGP4

EPOCH          = 2025-11-13T01:43:45.172704
MEAN_MOTION    = 15.69482920
ECCENTRICITY   = .0004974
INCLINATION    = 82.4887
RA_OF_ASC_NODE = 323.9810
ARG_OF_PERICENTER = 136.7895
MEAN_ANOMALY   = 223.3757

EPHEMERIS_TYPE = 0
CLASSIFICATION_TYPE = U
NORAD_CAT_ID   = 17295
ELEMENT_SET_NO = 999
REV_AT_EPOCH   = 12599
BSTAR          = .82467E-3
MEAN_MOTION_DOT = .97869E-3
MEAN_MOTION_DDOT = 0

CCSDS_OMM_VERS = 2.0
CREATION_DATE  = 
ORIGINATOR     = 

OBJECT_NAME    = SL-14 R/B
OBJECT_ID      = 1987-024B
CENTER_NAME    = EARTH
REF_FRAME      = TEME
TIME_SYSTEM    = UTC
MEAN_ELEMENT_THEORY = SGP/SGP4

EPOCH          = 2025-11-13T03:38:08.201184
MEAN_MOTION    = 14.85982453
ECCENTRICITY   = .0016861
INCLINATION    = 82.5302
RA_OF_ASC_NODE = 202.2459
ARG_OF_PERICENTER = 288.6855
MEAN_ANOMALY   = 71.2530

EPHEMERIS_TYPE = 0
CLASSIFICATION_TYPE = U
NORAD_CAT_ID   = 17567
ELEMENT_SET_NO = 999
REV_AT_EPOCH   = 7082
BSTAR          = .12909E-3
MEAN_MOTION_DOT = .1153E-4
MEAN_MOTION_DDOT = 0

CCSDS_OMM_VERS = 2.0
CREATION_DATE  = 
ORIGINATOR     = 

OBJECT_NAME    = COSMOS 1833
OBJECT_ID      = 1987-027A
CENTER_NAME    = EARTH
REF_FRAME      = TEME
TIME_SYSTEM    = UTC
MEAN_ELEMENT_THEORY = SGP/SGP4

EPOCH          = 2025-11-13T03:02:56.162688
MEAN_MOTION    = 14.13019924
ECCENTRICITY   = .0021229
INCLINATION    = 70.9148
RA_OF_ASC_NODE = 211.0274
ARG_OF_PERICENTER = 13.4599
MEAN_ANOMALY   = 346.7084

EPHEMERIS_TYPE = 0
CLASSIFICATION_TYPE = U
NORAD_CAT_ID   = 17589
ELEMENT_SET_NO = 999
REV_AT_EPOCH   = 99384
BSTAR          = -.75389E-4
MEAN_MOTION_DOT = -.189E-5
MEAN_MOTION_DDOT = 0

CCSDS_OMM_VERS = 2.0
CREATION_DATE  = 
ORIGINATOR     = 

OBJECT_NAME    = SL-16 R/B
OBJECT_ID      = 1987-027B
CENTER_NAME    = EARTH
REF_FRAME      = TEME
TIME_SYSTEM    = UTC
MEAN_ELEMENT_THEORY = SGP/SGP4

EPOCH          = 2025-11-13T00:22:16.723776
MEAN_MOTION    = 14.17147827
ECCENTRICITY   = .0007204
INCLINATION    = 71.0008
RA_OF_ASC_NODE = 162.3527
ARG_OF_PERICENTER = 290.9738
MEAN_ANOMALY   = 69.0615

EPHEMERIS_TYPE = 0
CLASSIFICATION_TYPE = U
NORAD_CAT_ID   = 17590
ELEMENT_SET_NO = 999
REV_AT_EPOCH   = 99885
BSTAR          = .21072E-4
MEAN_MOTION_DOT = -.6E-7
MEAN_MOTION_DDOT = 0

CCSDS_OMM_VERS = 2.0
CREATION_DATE  = 
ORIGINATOR     = 

OBJECT_NAME    = SL-14 R/B
OBJECT_ID      = 1987-038B
CENTER_NAME    = EARTH
REF_FRAME      = TEME
TIME_SYSTEM    = UTC
MEAN_ELEMENT_THEORY = SGP/SGP4

EPOCH          = 2025-11-12T16:22:36.672960
MEAN_MOTION    = 14.85217063
ECCENTRICITY   = .00191218
INCLINATION    = 82.5037
RA_OF_ASC_NODE = 47.0051
ARG_OF_PERICENTER = 187.1213
MEAN_ANOMALY   = 172.9734

EPHEMERIS_TYPE = 0
CLASSIFICATION_TYPE = U
NORAD_CAT_ID   = 17912
ELEMENT_SET_NO = 999
REV_AT_EPOCH   = 6186
BSTAR          = .12867088E-3
MEAN_MOTION_DOT = .113E-4
MEAN_MOTION_DDOT = 0

CCSDS_OMM_VERS = 2.0
CREATION_DATE  = 
ORIGINATOR     = 

OBJECT_NAME    = COSMOS 1844
OBJECT_ID      = 1987-041A
CENTER_NAME    = EARTH
REF_FRAME      = TEME
TIME_SYSTEM    = UTC
MEAN_ELEMENT_THEORY = SGP/SGP4

EPOCH          = 2025-11-13T03:27:33.932736
MEAN_MOTION    = 14.14522228
ECCENTRICITY   = .0031654
INCLINATION    = 70.8989
RA_OF_ASC_NODE = 279.9915
ARG_OF_PERICENTER = 201.6434
MEAN_ANOMALY   = 158.3352

EPHEMERIS_TYPE = 0
CLASSIFICATION_TYPE = U
NORAD_CAT_ID   = 17973
ELEMENT_SET_NO = 999
REV_AT_EPOCH   = 98710
BSTAR          = .29258E-3
MEAN_MOTION_DOT = .516E-5
MEAN_MOTION_DDOT = 0

CCSDS_OMM_VERS = 2.0
CREATION_DATE  = 
ORIGINATOR     = 

OBJECT_NAME    = SL-14 R/B
OBJECT_ID      = 1987-055B
CENTER_NAME    = EARTH
REF_FRAME      = TEME
TIME_SYSTEM    = UTC
MEAN_ELEMENT_THEORY = SGP/SGP4

EPOCH          = 2025-11-13T03:37:33.104640
MEAN_MOTION    = 14.85474570
ECCENTRICITY   = .0021686
INCLINATION    = 82.4974
RA_OF_ASC_NODE = 98.8718
ARG_OF_PERICENTER = 42.0289
MEAN_ANOMALY   = 318.2586

EPHEMERIS_TYPE = 0
CLASSIFICATION_TYPE = U
NORAD_CAT_ID   = 18153
ELEMENT_SET_NO = 999
REV_AT_EPOCH   = 5263
BSTAR          = .13813E-3
MEAN_MOTION_DOT = .122E-4
MEAN_MOTION_DDOT = 0

CCSDS_OMM_VERS = 2.0
CREATION_DATE  = 
ORIGINATOR     = 

OBJECT_NAME    = COSMOS 1867
OBJECT_ID      = 1987-060A
CENTER_NAME    = EARTH
REF_FRAME      = TEME
TIME_SYSTEM    = UTC
MEAN_ELEMENT_THEORY = SGP/SGP4

EPOCH          = 2025-11-13T02:54:03.360672
MEAN_MOTION    = 14.31478993
ECCENTRICITY   = .0013709
INCLINATION    = 65.0103
RA_OF_ASC_NODE = 273.1454
ARG_OF_PERICENTER = 268.1474
MEAN_ANOMALY   = 91.8040

EPHEMERIS_TYPE = 0
CLASSIFICATION_TYPE = U
NORAD_CAT_ID   = 18187
ELEMENT_SET_NO = 999
REV_AT_EPOCH   = 325
BSTAR          = .68745E-4
MEAN_MOTION_DOT = .83E-6
MEAN_MOTION_DDOT = 0

