COSMOS 1743             
1 16719U 86034A   25317.10827502  .00049816  00000+0  87815-3 0  9997
2 16719  82.5377 195.3182 0007285  16.1529 343.9953 15.50178341162148
SL-14 R/B               
1 16792U 86046B   25317.14312584  .00001080  00000+0  12211-3 0  9993
2 16792  82.4833 190.2627 0021687 252.3948 107.4900 14.85442615109101
SL-14 R/B               
1 16882U 86055B   25317.15423365  .00001336  00000+0  15168-3 0  9992
2 16882  82.5217 236.1682 0019110   2.7342 122.1737 14.85484617102060
AJISAI (EGS)            
1 16908U 86061A   25317.13472956 -.00000092  00000+0  35084-4 0  9995
2 16908  50.0083  91.7486 0011192 351.3486 189.9905 12.44514141453483
COSMOS 1812             
1 17295U 87003A   25317.07205061  .00097869  00000+0  82467-3 0  9999
2 17295  82.4887 323.9810 0004974 136.7895 223.3757 15.69482920125993
SL-14 R/B               
1 17567U 87024B   25317.15148381  .00001153  00000+0  12909-3 0  9999
2 17567  82.5302 202.2459 0016861 288.6855  71.2530 14.85982453 70820
COSMOS 1833             
1 17589U 87027A   25317.12703892 -.00000189  00000+0 -75389-4 0  9999
2 17589  70.9148 211.0274 0021229  13.4599 346.7084 14.13019924993844
SL-16 R/B               
1 17590U 87027B   25317.01547134 -.00000006  00000+0  21072-4 0  9991
2 17590  71.0008 162.3527 0007204 290.9738  69.0615 14.17147827998855
SL-14 R/B               
1 17912U 87038B   25316.68236890  .00001130  00000+0  12867-3 0  9996
2 17912  82.5037  47.0051 0019121 187.1213 172.9734 14.85217063 61862
COSMOS 1844             
1 17973U 87041A   25317.14414274  .00000516  00000+0  29258-3 0  9992
2 17973  70.8989 279.9915 0031654 201.6434 158.3352 14.14522228987104
SL-14 R/B               
1 18153U 87055B   25317.15107760  .00001220  00000+0  13813-3 0  9991
2 18153  82.4974  98.8718 0021686  42.0289 318.2586 14.85474570 52637
COSMOS 1867             
1 18187U 87060A   25317.12087223  .00000083  00000+0  68745-4 0  9993
2 18187  65.0103 273.1454 0013709 268.1474  91.8040 14.31478993  3251
